[
    {
        "OBJECT_NAME": "BEIDOU-2 IGSO-5",
        "OBJECT_ID": "2011-073A",
        "EPOCH": "2026-07-02T17:30:18.330912",
        "MEAN_MOTION": 1.00270596,
        "ECCENTRICITY": 0.01145273,
        "INCLINATION": 47.6496,
        "RA_OF_ASC_NODE": 271.3544,
        "ARG_OF_PERICENTER": 222.0502,
        "MEAN_ANOMALY": 141.535,
        "EPHEMERIS_TYPE": 0,
        "CLASSIFICATION_TYPE": "U",
        "NORAD_CAT_ID": 37948,
        "ELEMENT_SET_NO": 999,
        "REV_AT_EPOCH": 5329,
        "BSTAR": 0,
        "MEAN_MOTION_DOT": -1.28e-06,
        "MEAN_MOTION_DDOT": 0
    },
    {
        "OBJECT_NAME": "BEIDOU-2 G5",
        "OBJECT_ID": "2012-008A",
        "EPOCH": "2026-07-10T03:37:13.232640",
        "MEAN_MOTION": 1.00269053,
        "ECCENTRICITY": 0.00073577,
        "INCLINATION": 3.6273,
        "RA_OF_ASC_NODE": 69.5549,
        "ARG_OF_PERICENTER": 271.1607,
        "MEAN_ANOMALY": 60.3662,
        "EPHEMERIS_TYPE": 0,
        "CLASSIFICATION_TYPE": "U",
        "NORAD_CAT_ID": 38091,
        "ELEMENT_SET_NO": 999,
        "REV_AT_EPOCH": 5259,
        "BSTAR": 0,
        "MEAN_MOTION_DOT": 6.5e-07,
        "MEAN_MOTION_DDOT": 0
    },
    {
        "OBJECT_NAME": "BEIDOU-2 M3",
        "OBJECT_ID": "2012-018A",
        "EPOCH": "2026-07-10T06:40:09.382368",
        "MEAN_MOTION": 1.86230078,
        "ECCENTRICITY": 0.00207585,
        "INCLINATION": 55.7366,
        "RA_OF_ASC_NODE": 304.0977,
        "ARG_OF_PERICENTER": 272.6344,
        "MEAN_ANOMALY": 87.143,
        "EPHEMERIS_TYPE": 0,
        "CLASSIFICATION_TYPE": "U",
        "NORAD_CAT_ID": 38250,
        "ELEMENT_SET_NO": 999,
        "REV_AT_EPOCH": 9637,
        "BSTAR": 0,
        "MEAN_MOTION_DOT": -7e-07,
        "MEAN_MOTION_DDOT": 0
    },
    {
        "OBJECT_NAME": "BEIDOU-2 M4",
        "OBJECT_ID": "2012-018B",
        "EPOCH": "2026-07-10T05:02:43.457280",
        "MEAN_MOTION": 1.86229678,
        "ECCENTRICITY": 0.00121275,
        "INCLINATION": 55.6365,
        "RA_OF_ASC_NODE": 303.3118,
        "ARG_OF_PERICENTER": 272.899,
        "MEAN_ANOMALY": 86.9783,
        "EPHEMERIS_TYPE": 0,
        "CLASSIFICATION_TYPE": "U",
        "NORAD_CAT_ID": 38251,
        "ELEMENT_SET_NO": 999,
        "REV_AT_EPOCH": 9637,
        "BSTAR": 0,
        "MEAN_MOTION_DOT": -6.9e-07,
        "MEAN_MOTION_DDOT": 0
    },
    {
        "OBJECT_NAME": "BEIDOU-2 M6",
        "OBJECT_ID": "2012-050B",
        "EPOCH": "2026-07-09T22:04:36.346368",
        "MEAN_MOTION": 1.86230853,
        "ECCENTRICITY": 0.00130391,
        "INCLINATION": 56.5639,
        "RA_OF_ASC_NODE": 62.1429,
        "ARG_OF_PERICENTER": 0.9461,
        "MEAN_ANOMALY": 359.1187,
        "EPHEMERIS_TYPE": 0,
        "CLASSIFICATION_TYPE": "U",
        "NORAD_CAT_ID": 38775,
        "ELEMENT_SET_NO": 999,
        "REV_AT_EPOCH": 9373,
        "BSTAR": 0,
        "MEAN_MOTION_DOT": -4.7e-07,
        "MEAN_MOTION_DDOT": 0
    },
    {
        "OBJECT_NAME": "BEIDOU-2 G6",
        "OBJECT_ID": "2012-059A",
        "EPOCH": "2026-07-10T02:01:44.203296",
        "MEAN_MOTION": 1.00268183,
        "ECCENTRICITY": 0.00088186,
        "INCLINATION": 4.4756,
        "RA_OF_ASC_NODE": 73.2802,
        "ARG_OF_PERICENTER": 329.9398,
        "MEAN_ANOMALY": 359.1724,
        "EPHEMERIS_TYPE": 0,
        "CLASSIFICATION_TYPE": "U",
        "NORAD_CAT_ID": 38953,
        "ELEMENT_SET_NO": 999,
        "REV_AT_EPOCH": 5013,
        "BSTAR": 0,
        "MEAN_MOTION_DOT": -1.67e-06,
        "MEAN_MOTION_DDOT": 0
    },
    {
        "OBJECT_NAME": "BEIDOU-3S IGSO-1S",
        "OBJECT_ID": "2015-019A",
        "EPOCH": "2026-07-02T19:12:21.705408",
        "MEAN_MOTION": 1.00680073,
        "ECCENTRICITY": 0.00768606,
        "INCLINATION": 49.1798,
        "RA_OF_ASC_NODE": 295.2769,
        "ARG_OF_PERICENTER": 219.1125,
        "MEAN_ANOMALY": 144.2493,
        "EPHEMERIS_TYPE": 0,
        "CLASSIFICATION_TYPE": "U",
        "NORAD_CAT_ID": 40549,
        "ELEMENT_SET_NO": 999,
        "REV_AT_EPOCH": 4123,
        "BSTAR": 0,
        "MEAN_MOTION_DOT": -1.9e-06,
        "MEAN_MOTION_DDOT": 0
    },
    {
        "OBJECT_NAME": "BEIDOU-3S M2S",
        "OBJECT_ID": "2015-037A",
        "EPOCH": "2026-07-09T08:07:09.401664",
        "MEAN_MOTION": 1.86232291,
        "ECCENTRICITY": 0.0009247,
        "INCLINATION": 54.8497,
        "RA_OF_ASC_NODE": 301.2843,
        "ARG_OF_PERICENTER": 257.2985,
        "MEAN_ANOMALY": 102.6179,
        "EPHEMERIS_TYPE": 0,
        "CLASSIFICATION_TYPE": "U",
        "NORAD_CAT_ID": 40748,
        "ELEMENT_SET_NO": 999,
        "REV_AT_EPOCH": 7453,
        "BSTAR": 0,
        "MEAN_MOTION_DOT": -6.6e-07,
        "MEAN_MOTION_DDOT": 0
    },
    {
        "OBJECT_NAME": "BEIDOU-3S M1S",
        "OBJECT_ID": "2015-037B",
        "EPOCH": "2026-07-09T00:08:48.662592",
        "MEAN_MOTION": 1.86254773,
        "ECCENTRICITY": 0.00028739,
        "INCLINATION": 54.8467,
        "RA_OF_ASC_NODE": 301.2824,
        "ARG_OF_PERICENTER": 63.4413,
        "MEAN_ANOMALY": 296.6083,
        "EPHEMERIS_TYPE": 0,
        "CLASSIFICATION_TYPE": "U",
        "NORAD_CAT_ID": 40749,
        "ELEMENT_SET_NO": 999,
        "REV_AT_EPOCH": 7453,
        "BSTAR": 0,
        "MEAN_MOTION_DOT": -6.6e-07,
        "MEAN_MOTION_DDOT": 0
    },
    {
        "OBJECT_NAME": "BEIDOU-3S IGSO-2S",
        "OBJECT_ID": "2015-053A",
        "EPOCH": "2026-07-09T15:48:31.002624",
        "MEAN_MOTION": 1.00254643,
        "ECCENTRICITY": 0.00661364,
        "INCLINATION": 49.1869,
        "RA_OF_ASC_NODE": 258.5151,
        "ARG_OF_PERICENTER": 192.8518,
        "MEAN_ANOMALY": 167.1461,
        "EPHEMERIS_TYPE": 0,
        "CLASSIFICATION_TYPE": "U",
        "NORAD_CAT_ID": 40938,
        "ELEMENT_SET_NO": 999,
        "REV_AT_EPOCH": 3958,
        "BSTAR": 0,
        "MEAN_MOTION_DOT": -1.03e-06,
        "MEAN_MOTION_DDOT": 0
    },
    {
        "OBJECT_NAME": "BEIDOU-2 IGSO-6",
        "OBJECT_ID": "2016-021A",
        "EPOCH": "2026-06-26T02:38:38.671584",
        "MEAN_MOTION": 1.00258926,
        "ECCENTRICITY": 0.0057558,
        "INCLINATION": 60.2385,
        "RA_OF_ASC_NODE": 37.9495,
        "ARG_OF_PERICENTER": 231.0163,
        "MEAN_ANOMALY": 137.2672,
        "EPHEMERIS_TYPE": 0,
        "CLASSIFICATION_TYPE": "U",
        "NORAD_CAT_ID": 41434,
        "ELEMENT_SET_NO": 999,
        "REV_AT_EPOCH": 3757,
        "BSTAR": 0,
        "MEAN_MOTION_DOT": -1.45e-06,
        "MEAN_MOTION_DDOT": 0
    }
]